NORAD_CAT_ID,OBJECT_NAME,OBJECT_TYPE,EPOCH,MEAN_MOTION,ECCENTRICITY,INCLINATION,RA_OF_ASC_NODE,ARG_OF_PERICENTER,MEAN_ANOMALY,BSTAR,MEAN_MOTION_DOT,MEAN_MOTION_DDOT,TLE_LINE0,TLE_LINE1,TLE_LINE2,SEMIMAJOR_AXIS,PERIOD,APOGEE,PERIGEE,DECAYED
51736.0,STARLINK-3447,PAYLOAD,2022-06-07 22:00:00,15.08827051,0.000177,53.2133,352.7569,47.6278,191.4654,0.0020696,0.00032792,0.0,0 STARLINK-3447,1 51736U 22016Y   22158.91667824  .00032792  00000-0  20696-2 0  9992,2 51736  53.2133 352.7569 0001770  47.6278 191.4654 15.08827051 17754,6917.92,95.438,541.009,538.56,0.0
51736.0,STARLINK-3447,PAYLOAD,2022-06-08 14:00:01,15.0883859,0.000172,53.2136,349.7622,56.6029,205.6747,0.00020443,2.967e-05,0.0,0 STARLINK-3447,1 51736U 22016Y   22159.58334491  .00002967  00000-0  20443-3 0  9999,2 51736  53.2136 349.7622 0001720  56.6029 205.6747 15.08838590 17854,6917.885,95.438,540.94,538.56,0.0
51736.0,STARLINK-3447,PAYLOAD,2022-06-08 22:00:01,15.08828915,0.0001867,53.2136,348.2674,49.3388,224.5956,0.00014284,1.985e-05,0.0,0 STARLINK-3447,1 51736U 22016Y   22159.91668981  .00001985  00000-0  14284-3 0  9995,2 51736  53.2136 348.2674 0001867  49.3388 224.5956 15.08828915  1309,6917.9140000000025,95.438,541.071,538.488,0.0
51736.0,STARLINK-3447,PAYLOAD,2022-06-09 06:00:00,15.08818962,0.000167,53.2136,346.7694,50.5835,234.873,-0.00076878,-0.00012495,0.0,0 STARLINK-3447,1 51736U 22016Y   22160.25001157 -.00012495  00000-0 -76878-3 0  9997,2 51736  53.2136 346.7694 0001670  50.5835 234.8730 15.08818962 17950,6917.945,95.439,540.965,538.654,0.0
51736.0,STARLINK-3447,PAYLOAD,2022-06-09 14:00:01,15.08831676,0.0001657,53.2138,345.2729,54.87600000000001,242.142,-0.00025162,-4.289e-05,0.0,0 STARLINK-3447,1 51736U 22016Y   22160.58334491 -.00004289  00000-0 -25162-3 0  9995,2 51736  53.2138 345.2729 0001657  54.8760 242.1420 15.08831676  1301,6917.906,95.438,540.9169999999998,538.625,0.0
51736.0,STARLINK-3447,PAYLOAD,2022-06-09 22:00:00,15.08806234,0.0001836,53.2137,343.778,48.4534,260.1507,0.0026816999999999,0.0004261,0.0,0 STARLINK-3447,1 51736U 22016Y   22160.91667824  .00042610  00000-0  26817-2 0  9996,2 51736  53.2137 343.7780 0001836  48.4534 260.1507 15.08806234  1305,6917.984,95.44,541.119,538.578,0.0
51736.0,STARLINK-3447,PAYLOAD,2022-06-10 00:00:00,15.08813499,0.00018,53.2134,343.4038,46.84,354.6551,0.0023234,0.00036856,0.0,0 STARLINK-3447,1 51736U 22016Y   22161.00001157  .00036856  00000-0  23234-2 0  9993,2 51736  53.2134 343.4038 0001800  46.8400 354.6551 15.08813499 18071,6917.9609999999975,95.439,541.072,538.581,0.0
51736.0,STARLINK-3447,PAYLOAD,2022-06-10 14:00:01,15.0885253,0.0001653,53.2138,340.7831,55.34,276.4223,-0.00067216,-0.00010973,0.0,0 STARLINK-3447,1 51736U 22016Y   22161.58334491 -.00010973  00000-0 -67216-3 0  9999,2 51736  53.2138 340.7831 0001653  55.3400 276.4223 15.08852530 18152,6917.842,95.437,540.851,538.564,0.0
51736.0,STARLINK-3447,PAYLOAD,2022-06-10 22:00:00,15.08827293,0.0001789,53.2134,339.2881,48.74,294.6355,0.002669,0.00042431,0.0,0 STARLINK-3447,1 51736U 22016Y   22161.91667824  .00042431  00000-0  26690-2 0  9997,2 51736  53.2134 339.2881 0001789  48.7400 294.6355 15.08827293  1307,6917.919,95.438,541.0219999999998,538.547,0.0
51736.0,STARLINK-3447,PAYLOAD,2022-06-11 22:00:00,15.08816766,0.0001682,53.2129,334.7984,47.2692,330.8933,0.0029344,0.00046693,0.0,0 STARLINK-3447,1 51736U 22016Y   22162.91667824  .00046693  00000-0  29344-2 0  9991,2 51736  53.2129 334.7984 0001682  47.2692 330.8933 15.08816766 18355,6917.951,95.439,540.98,538.653,0.0
51736.0,STARLINK-3447,PAYLOAD,2022-06-12 14:00:01,15.0887854,0.0001512,53.2147,331.8040000000001,53.2852,348.0597,-0.0032657,-0.00051942,0.0,0 STARLINK-3447,1 51736U 22016Y   22163.58334491 -.00051942  00000-0 -32657-2 0  9992,2 51736  53.2147 331.8040 0001512  53.2852 348.0597 15.08878540 18460,6917.763000000001,95.435,540.674,538.582,0.0
51736.0,STARLINK-3447,PAYLOAD,2022-06-12 22:00:00,15.08816517,0.0001589,53.2144,330.3087,45.0204,7.9538,0.0024603,0.0003906,0.0,0 STARLINK-3447,1 51736U 22016Y   22163.91667824  .00039060  00000-0  24603-2 0  9995,2 51736  53.2144 330.3087 0001589  45.0204   7.9538 15.08816517  1303,6917.9519999999975,95.439,540.9159999999998,538.7180000000002,0.0
51736.0,STARLINK-3447,PAYLOAD,2022-06-13 06:00:02,15.0882921,0.0001406,53.2142,328.8102,50.2494,14.3849,0.0018788,0.00029731,0.0,0 STARLINK-3447,1 51736U 22016Y   22164.25002315  .00029731  00000-0  18788-2 0  9992,2 51736  53.2142 328.8102 0001406  50.2494  14.3849 15.08829210 18565,6917.913000000001,95.438,540.751,538.806,0.0
51736.0,STARLINK-3447,PAYLOAD,2022-06-13 14:00:01,15.08882932,0.0001462,53.2143,327.3144,50.0968,26.0614,-0.0042494,-0.00067364,0.0,0 STARLINK-3447,1 51736U 22016Y   22164.58334491 -.00067364  00000-0 -42494-2 0  9998,2 51736  53.2143 327.3144 0001462  50.0968  26.0614 15.08882932  1306,6917.749,95.435,540.626,538.6030000000002,0.0
51736.0,STARLINK-3447,PAYLOAD,2022-06-13 22:00:00,15.08828148,0.0001579,53.2141,325.8189,41.7147,46.0694,0.00082541,0.00012869,0.0,0 STARLINK-3447,1 51736U 22016Y   22164.91667824  .00012869  00000-0  82541-3 0  9990,2 51736  53.2141 325.8189 0001579  41.7147  46.0694 15.08828148  1300,6917.917,95.438,540.874,538.689,0.0
51736.0,STARLINK-3447,PAYLOAD,2022-06-14 14:00:01,15.088485999999998,0.0001591,53.2143,322.8247,49.9191,61.0255,-0.0015382999999999,-0.00024692,0.0,0 STARLINK-3447,1 51736U 22016Y   22165.58334491 -.00024692  00000-0 -15383-2 0  9993,2 51736  53.2143 322.8247 0001591  49.9191  61.0255 15.08848600  1302,6917.854,95.437,540.82,538.618,0.0
51736.0,STARLINK-3447,PAYLOAD,2022-06-14 22:00:00,15.08809385,0.0001749,53.2143,321.3293,45.1687,77.3667,0.0012398,0.00019482,0.0,0 STARLINK-3447,1 51736U 22016Y   22165.91667824  .00019482  00000-0  12398-2 0  9991,2 51736  53.2143 321.3293 0001749  45.1687  77.3667 15.08809385 18818,6917.974,95.439,541.049,538.629,0.0
51736.0,STARLINK-3447,PAYLOAD,2022-06-15 14:00:01,15.08842649,0.0001740999999999,53.2149,318.3354,51.7434,93.93,-0.0012624,-0.00020325,0.0,0 STARLINK-3447,1 51736U 22016Y   22166.58334491 -.00020325  00000-0 -12624-2 0  9998,2 51736  53.2149 318.3354 0001741  51.7434  93.9300 15.08842649  1307,6917.871999999999,95.437,540.942,538.533,0.0
51736.0,STARLINK-3447,PAYLOAD,2022-06-15 22:00:00,15.08836379,0.000183,53.2148,316.8399,44.649,112.6241,0.0017601,0.00027832,0.0,0 STARLINK-3447,1 51736U 22016Y   22166.91667824  .00027832  00000-0  17601-2 0  9992,2 51736  53.2148 316.8399 0001830  44.6490 112.6241 15.08836379  1306,6917.891,95.438,541.0219999999998,538.49,0.0
51736.0,STARLINK-3447,PAYLOAD,2022-06-16 02:00:01,15.08879803,0.0001719,53.215,316.0906,46.3186,296.7515,-0.0042431,-0.00067261,0.0,0 STARLINK-3447,1 51736U 22016Y   22167.08334491 -.00067261  00000-0 -42431-2 0  9993,2 51736  53.2150 316.0906 0001719  46.3186 296.7515 15.08879803  1309,6917.759,95.435,540.813,538.435,0.0
51736.0,STARLINK-3447,PAYLOAD,2022-06-19 14:00:01,15.08832986,0.0001716,53.2147,300.3795,47.1548,237.6371,-0.00064286,-0.00010503,0.0,0 STARLINK-3447,1 51736U 22016Y   22170.58334491 -.00010503  00000-0 -64286-3 0  9992,2 51736  53.2147 300.3795 0001716  47.1548 237.6371 15.08832986  1300,6917.901999999999,95.438,540.9540000000002,538.58,0.0
51736.0,STARLINK-3447,PAYLOAD,2022-06-19 20:00:01,15.08813632,0.0001785,53.2143,299.2578,43.4689,160.0161,0.0032585,0.00051916,0.0,0 STARLINK-3447,1 51736U 22016Y   22170.83334491  .00051916  00000-0  32585-2 0  9997,2 51736  53.2143 299.2578 0001785  43.4689 160.0161 15.08813632 19551,6917.9609999999975,95.439,541.061,538.591,0.0
51736.0,STARLINK-3447,PAYLOAD,2022-06-19 22:00:00,15.08842971,0.000175,53.2141,298.8832,43.81,252.5626,-4.7627e-05,-1.046e-05,0.0,0 STARLINK-3447,1 51736U 22016Y   22170.91667824 -.00001046  00000-0 -47627-4 0  9991,2 51736  53.2141 298.8832 0001750  43.8100 252.5626 15.08842971  1306,6917.871,95.437,540.947,538.526,0.0
51736.0,STARLINK-3447,PAYLOAD,2022-06-20 12:00:00,15.088638199999998,0.0001730999999999,53.2142,296.2641,51.3674,175.2984,-0.0035274,-0.00056027,0.0,0 STARLINK-3447,1 51736U 22016Y   22171.50001157 -.00056027  00000-0 -35274-2 0  9990,2 51736  53.2142 296.2641 0001731  51.3674 175.2984 15.08863820 19657,6917.808000000001,95.436,540.87,538.475,0.0
51736.0,STARLINK-3447,PAYLOAD,2022-06-20 14:00:01,15.08844608,0.0001812,53.214,295.8903,49.6067,269.9661,-0.0019325,-0.00030917,0.0,0 STARLINK-3447,1 51736U 22016Y   22171.58334491 -.00030917  00000-0 -19325-2 0  9997,2 51736  53.2140 295.8903 0001812  49.6067 269.9661 15.08844608  1306,6917.866,95.437,540.985,538.4780000000002,0.0
51736.0,STARLINK-3447,PAYLOAD,2022-06-20 22:00:00,15.08846538,0.0001853,53.2134,294.3938,47.2378,283.9218,-0.00052787,-8.681e-05,0.0,0 STARLINK-3447,1 51736U 22016Y   22171.91667824 -.00008681  00000-0 -52787-3 0  9996,2 51736  53.2134 294.3938 0001853  47.2378 283.9218 15.08846538 19717,6917.86,95.437,541.007,538.444,0.0
51736.0,STARLINK-3447,PAYLOAD,2022-06-21 14:00:01,15.0883289,0.0001968,53.2135,291.4009,52.2429,302.1175,-0.00051808,-8.523e-05,0.0,0 STARLINK-3447,1 51736U 22016Y   22172.58334491 -.00008523  00000-0 -51808-3 0  9999,2 51736  53.2135 291.4009 0001968  52.2429 302.1175 15.08832890  1303,6917.901999999999,95.438,541.129,538.406,0.0
51736.0,STARLINK-3447,PAYLOAD,2022-06-21 22:00:00,15.08853004,0.0001943,53.2132,289.9041,49.0357,316.9007,-0.0017323,-0.00027762,0.0,0 STARLINK-3447,1 51736U 22016Y   22172.91667824 -.00027762  00000-0 -17323-2 0  9994,2 51736  53.2132 289.9041 0001943  49.0357 316.9007 15.08853004  1302,6917.840999999999,95.437,541.05,538.362,0.0
51736.0,STARLINK-3447,PAYLOAD,2022-06-22 00:00:02,15.08861968,0.0001904,53.2134,289.5294,50.9872,47.9099,-0.0033913,-0.00053891,0.0,0 STARLINK-3447,1 51736U 22016Y   22173.00002315 -.00053891  00000-0 -33913-2 0  9998,2 51736  53.2134 289.5294 0001904  50.9872  47.9099 15.08861968 19882,6917.813,95.436,540.995,538.361,0.0
